{
  "norad_id": 55383,
  "name": "STARLINK-5531",
  "history": [
    {
      "epoch": "2026-03-28T22:00:01.999584Z",
      "apogee_km": 486.89532552368837,
      "perigee_km": 484.1434111393701,
      "latitude_deg": 1.3867959997993624,
      "longitude_deg": 25.259223882426383,
      "height_km": 485.1375018870838,
      "semi_major_axis_km": 6863.656368331529,
      "eccentricity": 0.00020047,
      "inclination_deg": 43.0014,
      "raan_deg": 180.1185,
      "arg_perigee_deg": 271.6056,
      "mean_anomaly_deg": 90.478,
      "mean_motion_rev_day": 15.26755396
    },
    {
      "epoch": "2026-03-28T23:33:42.463872Z",
      "apogee_km": 486.87087523838363,
      "perigee_km": 484.1967890821734,
      "latitude_deg": -1.6198484132418738e-05,
      "longitude_deg": -0.06943458964486118,
      "height_km": 485.2627412567447,
      "semi_major_axis_km": 6863.670832160278,
      "eccentricity": 0.0001948,
      "inclination_deg": 43.0022,
      "raan_deg": 179.7519,
      "arg_perigee_deg": 272.0814,
      "mean_anomaly_deg": 87.9814,
      "mean_motion_rev_day": 15.2675057
    }
  ]
}